NORAD_CAT_ID,OBJECT_NAME,OBJECT_TYPE,EPOCH,MEAN_MOTION,ECCENTRICITY,INCLINATION,RA_OF_ASC_NODE,ARG_OF_PERICENTER,MEAN_ANOMALY,BSTAR,MEAN_MOTION_DOT,MEAN_MOTION_DDOT,TLE_LINE0,TLE_LINE1,TLE_LINE2,SEMIMAJOR_AXIS,PERIOD,APOGEE,PERIGEE,DECAYED
53994.0,STARLINK-5125,PAYLOAD,2024-03-23 13:32:33,15.08842037,0.0001356,53.2174,188.8117,89.3372,270.7775,7.4191e-06,-1.7e-06,0.0,0 STARLINK-5125,1 53994U 22125AG  24083.56427999 -.00000170  00000-0  74191-5 0  9996,2 53994  53.2174 188.8117 0001356  89.3372 270.7775 15.08842037 81423,6917.874,95.437,540.677,538.801,0.0
53994.0,STARLINK-5125,PAYLOAD,2024-03-24 13:23:20,15.08844855,0.0001376,53.2173,184.3471,84.3391,275.7758,-2.6376e-05,-7.08e-06,0.0,0 STARLINK-5125,1 53994U 22125AG  24084.55788048 -.00000708  00000-0 -26376-4 0  9990,2 53994  53.2173 184.3471 0001376  84.3391 275.7758 15.08844855 81509,6917.866,95.437,540.682,538.779,0.0
53994.0,STARLINK-5125,PAYLOAD,2024-03-25 13:14:07,15.08845228,0.0001363,53.2162,179.8897,87.8196,272.2952,0.00026861,3.99e-05,0.0,0 STARLINK-5125,1 53994U 22125AG  24085.55148021  .00003990  00000-0  26861-3 0  9994,2 53994  53.2162 179.8897 0001363  87.8196 272.2952 15.08845228 81722,6917.864,95.437,540.672,538.787,0.0
53994.0,STARLINK-5125,PAYLOAD,2024-03-26 13:04:57,15.08818746,0.0001265,53.2167,175.4314,84.4567,275.6569,-9.3716e-05,-1.778e-05,0.0,0 STARLINK-5125,1 53994U 22125AG  24086.54510517 -.00001778  00000-0 -93716-4 0  9995,2 53994  53.2167 175.4314 0001265  84.4567 275.6569 15.08818746 81871,6917.945,95.439,540.685,538.935,0.0
53994.0,STARLINK-5125,PAYLOAD,2024-03-26 22:37:15,15.08830889,0.0001259,53.2175,173.644,89.5423,270.5713,-1.8736e-05,-5.86e-06,0.0,0 STARLINK-5125,1 53994U 22125AG  24086.94253869 -.00000586  00000-0 -18736-4 0  9998,2 53994  53.2175 173.6440 0001259  89.5423 270.5713 15.08830889 81866,6917.908,95.438,540.644,538.902,0.0
53994.0,STARLINK-5125,PAYLOAD,2024-03-27 12:55:42,15.08843691,0.0001243,53.2163,170.9687,70.6649,289.4477,9.8702e-05,1.283e-05,0.0,0 STARLINK-5125,1 53994U 22125AG  24087.53869055  .00001283  00000-0  98702-4 0  9998,2 53994  53.2163 170.9687 0001243  70.6649 289.4477 15.08843691 82020,6917.869,95.437,540.594,538.874,0.0
53994.0,STARLINK-5125,PAYLOAD,2024-03-27 22:28:01,15.08854429,0.0001362,53.2168,169.1866,77.0432,283.0712,0.00027723,4.129e-05,0.0,0 STARLINK-5125,1 53994U 22125AG  24087.93612398  .00004129  00000-0  27723-3 0  9994,2 53994  53.2168 169.1866 0001362  77.0432 283.0712 15.08854429 82019,6917.836,95.437,540.643,538.759,0.0
53994.0,STARLINK-5125,PAYLOAD,2024-03-28 12:46:30,15.08841346,0.0001541,53.2158,166.5107,77.3651,282.7513,0.00025459,3.766e-05,0.0,0 STARLINK-5125,1 53994U 22125AG  24088.53229420  .00003766  00000-0  25459-3 0  9991,2 53994  53.2158 166.5107 0001541  77.3651 282.7513 15.08841346 82178,6917.876,95.437,540.807,538.675,0.0
53994.0,STARLINK-5125,PAYLOAD,2024-03-28 14:21:53,15.08843465,0.0001522,53.2156,166.2131,77.5209,282.5953,0.00027304,4.061e-05,0.0,0 STARLINK-5125,1 53994U 22125AG  24088.59853333  .00004061  00000-0  27304-3 0  9993,2 53994  53.2156 166.2131 0001522  77.5209 282.5953 15.08843465 82114,6917.87,95.437,540.788,538.682,0.0
53994.0,STARLINK-5125,PAYLOAD,2024-03-28 22:18:48,15.08858029,0.0001495,53.2154,164.7264,78.6041,281.5119,0.00040514,6.169e-05,0.0,0 STARLINK-5125,1 53994U 22125AG  24088.92972556  .00006169  00000-0  40514-3 0  9998,2 53994  53.2154 164.7264 0001495  78.6041 281.5119 15.08858029 82167,6917.825,95.436,540.724,538.656,0.0
53994.0,STARLINK-5125,PAYLOAD,2024-03-29 12:37:16,15.08846598,0.0001371,53.2147,162.0502,93.896,266.2189,0.00062795,9.722e-05,0.0,0 STARLINK-5125,1 53994U 22125AG  24089.52588731  .00009722  00000-0  62795-3 0  9996,2 53994  53.2147 162.0502 0001371  93.8960 266.2189 15.08846598 82252,6917.86,95.437,540.674,538.777,0.0
53994.0,STARLINK-5125,PAYLOAD,2024-03-30 04:31:08,15.08841895,0.0001491,53.2139,159.0769,88.0806,272.0357,0.00042468,6.478e-05,0.0,0 STARLINK-5125,1 53994U 22125AG  24090.18828947  .00006478  00000-0  42468-3 0  9996,2 53994  53.2139 159.0769 0001491  88.0806 272.0357 15.08841895 82428,6917.875,95.437,540.771,538.708,0.0
53994.0,STARLINK-5125,PAYLOAD,2024-03-30 10:52:40,15.08840713,0.0001493,53.2151,157.8855,95.3567,264.7596,0.00012825,1.754e-05,0.0,0 STARLINK-5125,1 53994U 22125AG  24090.45325055  .00001754  00000-0  12825-3 0  9994,2 53994  53.2151 157.8855 0001493  95.3567 264.7596 15.08840713 82398,6917.878,95.438,540.776,538.71,0.0
53994.0,STARLINK-5125,PAYLOAD,2024-03-30 22:00:22,15.08846452,0.0001492,53.2156,155.804,96.0492,264.067,0.00021816,3.186e-05,0.0,0 STARLINK-5125,1 53994U 22125AG  24090.91692982  .00003186  00000-0  21816-3 0  9992,2 53994  53.2156 155.8040 0001492  96.0492 264.0670 15.08846452 82461,6917.861,95.437,540.758,538.694,0.0
53994.0,STARLINK-5125,PAYLOAD,2024-03-31 04:21:55,15.08841161,0.0001387,53.2167,154.6143,102.0677,258.047,0.00029667,4.437e-05,0.0,0 STARLINK-5125,1 53994U 22125AG  24091.18189248  .00004437  00000-0  29667-3 0  9990,2 53994  53.2167 154.6143 0001387 102.0677 258.0470 15.08841161 82575,6917.877,95.437,540.701,538.782,0.0
53994.0,STARLINK-5125,PAYLOAD,2024-03-31 13:54:13,15.0884969,0.000151,53.2161,152.8314,94.2622,265.8543,0.00020334,2.95e-05,0.0,0 STARLINK-5125,1 53994U 22125AG  24091.57932659  .00002950  00000-0  20334-3 0  9995,2 53994  53.2161 152.8314 0001510  94.2622 265.8543 15.08849690 82560,6917.851,95.437,540.76,538.671,0.0
53994.0,STARLINK-5125,PAYLOAD,2024-04-01 10:34:15,15.08833209,0.0001427,53.2155,148.9624,98.6152,261.5002,-3.8708e-06,-3.5e-06,0.0,0 STARLINK-5125,1 53994U 22125AG  24092.44045529 -.00000350  00000-0 -38708-5 0  9993,2 53994  53.2155 148.9624 0001427  98.6152 261.5002 15.08833209 82760,6917.901,95.438,540.753,538.779,0.0
53994.0,STARLINK-5125,PAYLOAD,2024-04-01 13:45:02,15.08829841,0.0001384,53.2166,148.368,99.7672,260.3477,4.0685e-06,-2.23e-06,0.0,0 STARLINK-5125,1 53994U 22125AG  24092.57294003 -.00000223  00000-0  40685-5 0  9995,2 53994  53.2166 148.3680 0001384  99.7672 260.3477 15.08829841 82714,6917.911,95.438,540.734,538.819,0.0
53994.0,STARLINK-5125,PAYLOAD,2024-04-02 10:25:01,15.08844463,0.0001457,53.217,144.5058,102.4668,257.6487,0.0001127,1.506e-05,0.0,0 STARLINK-5125,1 53994U 22125AG  24093.43405029  .00001506  00000-0  11270-3 0  9993,2 53994  53.2170 144.5058 0001457 102.4668 257.6487 15.08844463 82913,6917.867,95.437,540.74,538.724,0.0
53994.0,STARLINK-5125,PAYLOAD,2024-04-02 19:57:20,15.08852693,0.0001425,53.2173,142.7217,99.3501,260.7652,0.00011206,1.497e-05,0.0,0 STARLINK-5125,1 53994U 22125AG  24093.83148335  .00001497  00000-0  11206-3 0  9999,2 53994  53.2173 142.7217 0001425  99.3501 260.7652 15.08852693 82900,6917.842,95.437,540.692,538.721,0.0
53994.0,STARLINK-5125,PAYLOAD,2024-04-03 03:54:17,15.0883181,0.0001447,53.2164,141.2348,98.5069,261.6087,0.00012045,1.629e-05,0.0,0 STARLINK-5125,1 53994U 22125AG  24094.16269819  .00001629  00000-0  12045-3 0  9996,2 53994  53.2164 141.2348 0001447  98.5069 261.6087 15.08831810 83027,6917.905,95.438,540.771,538.769,0.0
53994.0,STARLINK-5125,PAYLOAD,2024-04-03 11:51:12,15.08831168,0.0001562,53.2185,139.7504,106.197,253.9194,9.4973e-05,1.223e-05,0.0,0 STARLINK-5125,1 53994U 22125AG  24094.49389901  .00001223  00000-0  94973-4 0  9998,2 53994  53.2185 139.7504 0001562 106.1970 253.9194 15.08831168 83008,6917.907,95.438,540.853,538.692,0.0
53994.0,STARLINK-5125,PAYLOAD,2024-04-03 19:48:08,15.0883821,0.0001446,53.217,138.2614,99.0615,261.0541,0.00010794,1.43e-05,0.0,0 STARLINK-5125,1 53994U 22125AG  24094.82509492  .00001430  00000-0  10794-3 0  9992,2 53994  53.2170 138.2614 0001446  99.0615 261.0541 15.08838210 83051,6917.886,95.438,540.751,538.751,0.0
53994.0,STARLINK-5125,PAYLOAD,2024-04-04 11:41:59,15.08840301,0.0001496,53.2172,135.2879,97.9038,262.2124,2.3067e-05,7.9e-07,0.0,0 STARLINK-5125,1 53994U 22125AG  24095.48749593  .00000079  00000-0  23067-4 0  9999,2 53994  53.2172 135.2879 0001496  97.9038 262.2124 15.08840301 83227,6917.879,95.438,540.779,538.71,0.0
53994.0,STARLINK-5125,PAYLOAD,2024-04-04 19:38:54,15.08848417,0.0001504,53.2174,133.8005,93.354,266.7624,2.6026e-05,1.26e-06,0.0,0 STARLINK-5125,1 53994U 22125AG  24095.81868989  .00000126  00000-0  26026-4 0  9998,2 53994  53.2174 133.8005 0001504  93.3540 266.7624 15.08848417 83277,6917.855,95.437,540.76,538.679,0.0
53994.0,STARLINK-5125,PAYLOAD,2024-04-05 11:32:46,15.08844262,0.0001508,53.217,130.8263,88.3755,271.741,0.000109,1.447e-05,0.0,0 STARLINK-5125,1 53994U 22125AG  24096.48109015  .00001447  00000-0  10900-3 0  9990,2 53994  53.2170 130.8263 0001508  88.3755 271.7410 15.08844262 83309,6917.867,95.437,540.776,538.689,0.0
53994.0,STARLINK-5125,PAYLOAD,2024-04-05 19:29:41,15.08847673,0.0001519,53.217,129.3395,87.8498,272.2668,0.00011807,1.592e-05,0.0,0 STARLINK-5125,1 53994U 22125AG  24096.81228670  .00001592  00000-0  11807-3 0  9994,2 53994  53.2170 129.3395 0001519  87.8498 272.2668 15.08847673 83353,6917.857,95.437,540.773,538.671,0.0
53994.0,STARLINK-5125,PAYLOAD,2024-04-06 11:23:33,15.08838562,0.0001335,53.2161,126.3619,100.9974,259.1168,1.4306e-05,-6e-07,0.0,0 STARLINK-5125,1 53994U 22125AG  24097.47469370 -.00000060  00000-0  14306-4 0  9999,2 53994  53.2161 126.3619 0001335 100.9974 259.1168 15.08838562 83526,6917.885,95.438,540.673,538.826,0.0
53994.0,STARLINK-5125,PAYLOAD,2024-04-06 19:20:28,15.08844369,0.0001321,53.2161,124.8766,96.1159,263.9983,4.9128e-05,4.94e-06,0.0,0 STARLINK-5125,1 53994U 22125AG  24097.80588876  .00000494  00000-0  49128-4 0  9999,2 53994  53.2161 124.8766 0001321  96.1159 263.9983 15.08844369 83506,6917.867,95.437,540.646,538.818,0.0
53994.0,STARLINK-5125,PAYLOAD,2024-04-07 11:14:20,15.08839767,0.0001423,53.2173,121.903,101.6202,258.495,-2.9031e-05,-7.5e-06,0.0,0 STARLINK-5125,1 53994U 22125AG  24098.46829469 -.00000750  00000-0 -29031-4 0  9996,2 53994  53.2173 121.9030 0001423 101.6202 258.4950 15.08839767 83672,6917.881,95.438,540.731,538.762,0.0
